start=new Date('2022-12-25T00:00:00.000Z').valueOf();
sats=[{"RA_OF_ASC_NODE":"21.8553","MEAN_MOTION_DDOT":"0.0000000000000","TIME_SYSTEM":"UTC","RCS_SIZE":"LARGE","APOAPSIS":"541.478","MEAN_ANOMALY":"330.8632","SEMIMAJOR_AXIS":"6917.833","CENTER_NAME":"EARTH","INCLINATION":"53.2175","EPOCH":"2022-12-24T11:38:12.716160","REV_AT_EPOCH":"2454","COUNTRY_CODE":"US","FILE":"3721189","MEAN_MOTION_DOT":"0.00007073","PERIAPSIS":"537.918","BSTAR":"0.00046185000000","DECAY_DATE":null,"ELEMENT_SET_NO":"999","SITE":"AFETR","EPHEMERIS_TYPE":"0","OBJECT_ID":"2022-083W","GP_ID":"221350448","OBJECT_TYPE":"PAYLOAD","ECCENTRICITY":"0.00025730","OBJECT_NAME":"STARLINK-4045","TLE_LINE2":"2 53152  53.2175  21.8553 0002573  29.2504 330.8632 15.08855417 24548","REF_FRAME":"TEME","ARG_OF_PERICENTER":"29.2504","CLASSIFICATION_TYPE":"U","MEAN_ELEMENT_THEORY":"SGP4","PERIOD":"95.437","NORAD_CAT_ID":"53152","LAUNCH_DATE":"2022-07-17","MEAN_MOTION":"15.08855417","TLE_LINE1":"1 53152U 22083W   22358.48486940  .00007073  00000-0  46185-3 0  9998"},{"MEAN_MOTION_DOT":"-0.00000843","COUNTRY_CODE":"US","FILE":"3721442","PERIAPSIS":"538.108","BSTAR":"-0.00003482100000","DECAY_DATE":null,"INCLINATION":"53.2193","EPOCH":"2022-12-24T19:19:14.527200","REV_AT_EPOCH":"2459","MEAN_MOTION_DDOT":"0.0000000000000","TIME_SYSTEM":"UTC","RA_OF_ASC_NODE":"20.4194","SEMIMAJOR_AXIS":"6917.876","CENTER_NAME":"EARTH","MEAN_ANOMALY":"329.2527","RCS_SIZE":"LARGE","APOAPSIS":"541.373","MEAN_MOTION":"15.08841535","TLE_LINE1":"1 53153U 22083X   22358.80502925 -.00000843  00000-0 -34821-4 0  9992","PERIOD":"95.437","MEAN_ELEMENT_THEORY":"SGP4","NORAD_CAT_ID":"53153","LAUNCH_DATE":"2022-07-17","ECCENTRICITY":"0.00023600","OBJECT_TYPE":"PAYLOAD","CLASSIFICATION_TYPE":"U","TLE_LINE2":"2 53153  53.2193  20.4194 0002360  30.8603 329.2527 15.08841535 24593","OBJECT_NAME":"STARLINK-4098","REF_FRAME":"TEME","ARG_OF_PERICENTER":"30.8603","OBJECT_ID":"2022-083X","EPHEMERIS_TYPE":"0","ELEMENT_SET_NO":"999","SITE":"AFETR","GP_ID":"221381985"},{"TIME_SYSTEM":"UTC","MEAN_MOTION_DDOT":"0.0000000000000","RA_OF_ASC_NODE":"21.8760","CENTER_NAME":"EARTH","SEMIMAJOR_AXIS":"6917.854","MEAN_ANOMALY":"328.4277","APOAPSIS":"541.488","RCS_SIZE":"LARGE","MEAN_MOTION_DOT":"0.00000400","FILE":"3721189","COUNTRY_CODE":"US","BSTAR":"0.00004322600000","DECAY_DATE":null,"PERIAPSIS":"537.950","EPOCH":"2022-12-24T11:32:54.276000","INCLINATION":"53.2196","REV_AT_EPOCH":"2454","ECCENTRICITY":"0.00025570","OBJECT_TYPE":"PAYLOAD","CLASSIFICATION_TYPE":"U","ARG_OF_PERICENTER":"31.6869","REF_FRAME":"TEME","OBJECT_NAME":"STARLINK-4077","TLE_LINE2":"2 53154  53.2196  21.8760 0002557  31.6869 328.4277 15.08848749 24544","OBJECT_ID":"2022-083Y","EPHEMERIS_TYPE":"0","ELEMENT_SET_NO":"999","SITE":"AFETR","GP_ID":"221351250","MEAN_MOTION":"15.08848749","TLE_LINE1":"1 53154U 22083Y   22358.48118375  .00000400  00000-0  43226-4 0  9995","PERIOD":"95.437","MEAN_ELEMENT_THEORY":"SGP4","LAUNCH_DATE":"2022-07-17","NORAD_CAT_ID":"53154"},{"COUNTRY_CODE":"US","FILE":"3721442","MEAN_MOTION_DOT":"0.00003131","PERIAPSIS":"538.169","DECAY_DATE":null,"BSTAR":"0.00021474000000","INCLINATION":"53.2191","EPOCH":"2022-12-24T14:22:29.795808","REV_AT_EPOCH":"2520","RA_OF_ASC_NODE":"21.3457","MEAN_MOTION_DDOT":"0.0000000000000","TIME_SYSTEM":"UTC","RCS_SIZE":"LARGE","APOAPSIS":"541.326","SEMIMAJOR_AXIS":"6917.883","CENTER_NAME":"EARTH","MEAN_ANOMALY":"319.6449","MEAN_MOTION":"15.08839258","TLE_LINE1":"1 53155U 22083Z   22358.59895597  .00003131  00000-0  21474-3 0  9990","MEAN_ELEMENT_THEORY":"SGP4","PERIOD":"95.438","NORAD_CAT_ID":"53155","LAUNCH_DATE":"2022-07-17","OBJECT_TYPE":"PAYLOAD","ECCENTRICITY":"0.00022820","OBJECT_NAME":"STARLINK-4088","TLE_LINE2":"2 53155  53.2191  21.3457 0002282  40.4713 319.6449 15.08839258 25201","REF_FRAME":"TEME","ARG_OF_PERICENTER":"40.4713","CLASSIFICATION_TYPE":"U","ELEMENT_SET_NO":"999","SITE":"AFETR","EPHEMERIS_TYPE":"0","OBJECT_ID":"2022-083Z","GP_ID":"221383225"},{"MEAN_MOTION":"15.08842848","TLE_LINE1":"1 53156U 22083AA  22358.33493899  .00002400  00000-0  16883-3 0  9998","PERIOD":"95.437","MEAN_ELEMENT_THEORY":"SGP4","LAUNCH_DATE":"2022-07-17","NORAD_CAT_ID":"53156","ECCENTRICITY":"0.00021690","OBJECT_TYPE":"PAYLOAD","CLASSIFICATION_TYPE":"U","ARG_OF_PERICENTER":"36.3626","REF_FRAME":"TEME","TLE_LINE2":"2 53156  53.2190  22.5311 0002169  36.3626 323.7513 15.08842848 24525","OBJECT_NAME":"STARLINK-4087","OBJECT_ID":"2022-083AA","EPHEMERIS_TYPE":"0","SITE":"AFETR","ELEMENT_SET_NO":"999","GP_ID":"221350024","MEAN_MOTION_DOT":"0.00002400","FILE":"3721189","COUNTRY_CODE":"US","BSTAR":"0.00016883000000","DECAY_DATE":null,"PERIAPSIS":"538.236","EPOCH":"2022-12-24T08:02:18.728736","INCLINATION":"53.2190","REV_AT_EPOCH":"2452","TIME_SYSTEM":"UTC","MEAN_MOTION_DDOT":"0.0000000000000","RA_OF_ASC_NODE":"22.5311","MEAN_ANOMALY":"323.7513","SEMIMAJOR_AXIS":"6917.872","CENTER_NAME":"EARTH","APOAPSIS":"541.237","RCS_SIZE":"LARGE"},{"GP_ID":"221382398","OBJECT_ID":"2022-083AB","EPHEMERIS_TYPE":"0","ELEMENT_SET_NO":"999","SITE":"AFETR","CLASSIFICATION_TYPE":"U","REF_FRAME":"TEME","ARG_OF_PERICENTER":"48.5254","OBJECT_NAME":"STARLINK-4093","TLE_LINE2":"2 53157  53.2196  20.4860 0002069  48.5254 311.5915 15.08851529 24593","ECCENTRICITY":"0.00020690","OBJECT_TYPE":"PAYLOAD","NORAD_CAT_ID":"53157","LAUNCH_DATE":"2022-07-17","PERIOD":"95.437","MEAN_ELEMENT_THEORY":"SGP4","TLE_LINE1":"1 53157U 22083AB  22358.79030626  .00001950  00000-0  14056-3 0  9993","MEAN_MOTION":"15.08851529","CENTER_NAME":"EARTH","SEMIMAJOR_AXIS":"6917.845","MEAN_ANOMALY":"311.5915","APOAPSIS":"541.141","RCS_SIZE":"LARGE","TIME_SYSTEM":"UTC","MEAN_MOTION_DDOT":"0.0000000000000","RA_OF_ASC_NODE":"20.4860","REV_AT_EPOCH":"2459","EPOCH":"2022-12-24T18:58:02.460864","INCLINATION":"53.2196","BSTAR":"0.00014056000000","DECAY_DATE":null,"PERIAPSIS":"538.279","MEAN_MOTION_DOT":"0.00001950","FILE":"3721442","COUNTRY_CODE":"US"},{"MEAN_ELEMENT_THEORY":"SGP4","PERIOD":"95.437","NORAD_CAT_ID":"53158","LAUNCH_DATE":"2022-07-17","MEAN_MOTION":"15.08846366","TLE_LINE1":"1 53158U 22083AC  22358.27143848  .00014836  00000-0  94808-3 0  9998","SITE":"AFETR","ELEMENT_SET_NO":"999","EPHEMERIS_TYPE":"0","OBJECT_ID":"2022-083AC","GP_ID":"221383019","OBJECT_TYPE":"PAYLOAD","ECCENTRICITY":"0.00017010","ARG_OF_PERICENTER":"64.9271","REF_FRAME":"TEME","TLE_LINE2":"2 53158  53.2169  22.8163 0001701  64.9271 295.1898 15.08846366 24511","OBJECT_NAME":"STARLINK-4054","CLASSIFICATION_TYPE":"U","EPOCH":"2022-12-24T06:30:52.284672","INCLINATION":"53.2169","REV_AT_EPOCH":"2451","FILE":"3721442","COUNTRY_CODE":"US","MEAN_MOTION_DOT":"0.00014836","DECAY_DATE":null,"BSTAR":"0.00094808000000","PERIAPSIS":"538.549","RA_OF_ASC_NODE":"22.8163","TIME_SYSTEM":"UTC","MEAN_MOTION_DDOT":"0.0000000000000","RCS_SIZE":"LARGE","APOAPSIS":"540.903","CENTER_NAME":"EARTH","SEMIMAJOR_AXIS":"6917.861","MEAN_ANOMALY":"295.1898"},{"RCS_SIZE":"LARGE","APOAPSIS":"541.813","SEMIMAJOR_AXIS":"6917.893","MEAN_ANOMALY":"332.8540","CENTER_NAME":"EARTH","RA_OF_ASC_NODE":"20.5150","MEAN_MOTION_DDOT":"0.0000000000000","TIME_SYSTEM":"UTC","PERIAPSIS":"537.702","BSTAR":"0.00007421600000","DECAY_DATE":null,"COUNTRY_CODE":"US","FILE":"3721442","MEAN_MOTION_DOT":"0.00000893","REV_AT_EPOCH":"2459","INCLINATION":"53.2191","EPOCH":"2022-12-24T18:47:27.559968","OBJECT_NAME":"STARLINK-4111","TLE_LINE2":"2 53159  53.2191  20.5150 0002971  27.2608 332.8540 15.08836026 24597","REF_FRAME":"TEME","ARG_OF_PERICENTER":"27.2608","CLASSIFICATION_TYPE":"U","OBJECT_TYPE":"PAYLOAD","ECCENTRICITY":"0.00029710","GP_ID":"221382813","ELEMENT_SET_NO":"999","SITE":"AFETR","OBJECT_ID":"2022-083AD","EPHEMERIS_TYPE":"0","TLE_LINE1":"1 53159U 22083AD  22358.78295787  .00000893  00000-0  74216-4 0  9995","MEAN_MOTION":"15.08836026","NORAD_CAT_ID":"53159","LAUNCH_DATE":"2022-07-17","MEAN_ELEMENT_THEORY":"SGP4","PERIOD":"95.438"},{"REV_AT_EPOCH":"2459","EPOCH":"2022-12-24T19:03:20.408544","INCLINATION":"53.2172","BSTAR":"0.00026693000000","DECAY_DATE":null,"PERIAPSIS":"538.338","MEAN_MOTION_DOT":"0.00003964","FILE":"3721442","COUNTRY_CODE":"US","MEAN_ANOMALY":"315.1427","SEMIMAJOR_AXIS":"6917.840","CENTER_NAME":"EARTH","RCS_SIZE":"LARGE","APOAPSIS":"541.072","TIME_SYSTEM":"UTC","MEAN_MOTION_DDOT":"0.0000000000000","RA_OF_ASC_NODE":"20.4684","LAUNCH_DATE":"2022-07-17","NORAD_CAT_ID":"53160","PERIOD":"95.437","MEAN_ELEMENT_THEORY":"SGP4","TLE_LINE1":"1 53160U 22083AE  22358.79398621  .00003964  00000-0  26693-3 0  9996","MEAN_MOTION":"15.08853241","GP_ID":"221381779","OBJECT_ID":"2022-083AE","EPHEMERIS_TYPE":"0","ELEMENT_SET_NO":"999","SITE":"AFETR","CLASSIFICATION_TYPE":"U","ARG_OF_PERICENTER":"44.9725","REF_FRAME":"TEME","TLE_LINE2":"2 53160  53.2172  20.4684 0001976  44.9725 315.1427 15.08853241 24595","OBJECT_NAME":"STARLINK-4096","ECCENTRICITY":"0.00019760","OBJECT_TYPE":"PAYLOAD"},{"LAUNCH_DATE":"2022-07-17","NORAD_CAT_ID":"53161","PERIOD":"95.438","MEAN_ELEMENT_THEORY":"SGP4","TLE_LINE1":"1 53161U 22083AF  22358.44070869  .00001024  00000-0  82445-4 0  9993","MEAN_MOTION":"15.08838139","GP_ID":"221350648","EPHEMERIS_TYPE":"0","OBJECT_ID":"2022-083AF","SITE":"AFETR","ELEMENT_SET_NO":"999","CLASSIFICATION_TYPE":"U","ARG_OF_PERICENTER":"28.4952","REF_FRAME":"TEME","OBJECT_NAME":"STARLINK-4055","TLE_LINE2":"2 53161  53.2190  22.0709 0002517  28.4952 331.6178 15.08838139 24543","ECCENTRICITY":"0.00025170","OBJECT_TYPE":"PAYLOAD","REV_AT_EPOCH":"2454","EPOCH":"2022-12-24T10:34:37.230816","INCLINATION":"53.2190","BSTAR":"0.00008244500000","DECAY_DATE":null,"PERIAPSIS":"538.010","MEAN_MOTION_DOT":"0.00001024","FILE":"3721189","COUNTRY_CODE":"US","SEMIMAJOR_AXIS":"6917.886","MEAN_ANOMALY":"331.6178","CENTER_NAME":"EARTH","APOAPSIS":"541.492","RCS_SIZE":"LARGE","TIME_SYSTEM":"UTC","MEAN_MOTION_DDOT":"0.0000000000000","RA_OF_ASC_NODE":"22.0709"}];
